[{"id":4,"Brand":"Ford","Model":"F150","Price":149970,"Registration":"2023","Kilometer":500,"Img1":"upload\/65cb4513d1e7b.jpg","Img2":"upload\/65cb4513d230c.jpg","Img3":"upload\/65cb4513d2816.jpg","Fuel":"electrique","MaxSpeed":"280","CV":"20","Option":"           Transmission automatique 1 vitesse\r\nLariat Extended-Range\r\nSyst\u00e8me de gestion de charge boxlink\r\nCoffre avant\r\nCh\u00e2ssis enti\u00e8rement en acier\r\nPhares \u00e0 projecteur \u00e0 LED\r\n\u00c9clairage LED de la benne\r\nCrochets d'arrimage de la caisse\r\nVerrouillage et ouverture\/fermeture \u00e9lectrique du hayon\r\nVitre centrale de lunette arri\u00e8re coulissante \u00e9lectrique avec d\u00e9givrage\r\nMarchepied de hayon\r\n\u00c9clairage de zone\r\nCompteur digital de 12'\r\n\u00c9clairage ambient int\u00e9rieur\r\nApple CARPLAY et Android auto sans fil\r\nGPS US (GPS Europe en option)\r\nSyst\u00e8me audio B&O\r\nEntr\u00e9e illumin\u00e9e\r\nR\u00e9troviseur \u00e0 att\u00e9nuation automatique\r\nP\u00e9dales r\u00e9glables \u00e9lectriquement avec m\u00e9moire\r\nSupport lombaire \u00e9lectrique\r\nSi\u00e8ges avant chauffants et ventil\u00e9s                                                                                                                                                                                                                         "},{"id":5,"Brand":"renault","Model":"Talisman","Price":17900,"Registration":"2016","Kilometer":84324,"Img1":"upload\/65c4f5e164aa4.jpg","Img2":"upload\/65c4f5e164db1.jpg","Img3":"upload\/65c4f5e164f91.jpg","Fuel":"Diesel","MaxSpeed":"250","CV":"8","Option":"  Phares \u00e0 allumage automatique\r\nAmpoules de phares Led\r\nFreins r\u00e9g\u00e9n\u00e9rateurs\r\nFeux arri\u00e8res \u00e0 LED\r\n                                          Antibrouillards avant                                                  "},{"id":6,"Brand":"Dacia","Model":"Spring","Price":11900,"Registration":"2020","Kilometer":21,"Img1":"upload\/65cb462b5e54d.jpg","Img2":"upload\/65cb462b5e7db.jpg","Img3":"upload\/65cb462b5e985.jpg","Fuel":"electrique","MaxSpeed":"150","CV":"2","Option":"                     Fonction \u00e9co-mode\r\nEnjoliveurs Flexwheel 14'' DORIA\r\nPeinture int\u00e9grale                           "},{"id":7,"Brand":"Mercedes","Model":"Class a","Price":28290,"Registration":"2022","Kilometer":25900,"Img1":"upload\/65cb469f70c10.jpg","Img2":"upload\/65cb469f70e40.jpg","Img3":"upload\/65cb469f71094.jpg","Fuel":"essence","MaxSpeed":"190","CV":"200","Option":"          Kit anticrevaison TIREFIT\r\nBo\u00eete de vitesse automatique 7G-DCT\r\nPav\u00e9 tactile TOUCHPAD\r\nEl\u00e9ments de design chrom\u00e9s\r\nInserts d\u00e9coratifs fa\u00e7on Carbone              "},{"id":8,"Brand":"bentley","Model":"Continental","Price":47990,"Registration":"2007","Kilometer":88752,"Img1":"upload\/65cb46eea75f4.jpg","Img2":"upload\/65cb46eea7830.jpg","Img3":"upload\/65cb46eea7a01.jpg","Fuel":"essence","MaxSpeed":"300","CV":"200","Option":"       Climatisation automatique\r\nDirection assist\u00e9e\r\nInt\u00e9rieur tout cuir                 "},{"id":9,"Brand":"Skoda","Model":"Karoq","Price":19990,"Registration":"2019","Kilometer":49645,"Img1":"upload\/65cb4756732d8.jpg","Img2":"upload\/65cb4756734f8.jpg","Img3":"upload\/65cb4756736cd.jpg","Fuel":"essence","MaxSpeed":"190","CV":"200","Option":"            Aide parking\r\nLunette arri\u00e8re d\u00e9givrante\r\nPeinture int\u00e9grale            "},{"id":10,"Brand":"Peugeot","Model":"3008","Price":22800,"Registration":"2019","Kilometer":28455,"Img1":"upload\/65cb47b9b75e0.jpg","Img2":"upload\/65cb47b9b782b.jpg","Img3":"upload\/65cb47b9b7a29.jpg","Fuel":"essence","MaxSpeed":"160","CV":"200","Option":"            R\u00e9troviseurs ext\u00e9rieurs index\u00e9s marche arri\u00e8re\r\nR\u00e9troviseurs ext\u00e9rieurs r\u00e9glage \u00e9lectrique\r\nFeux de route \u00e0 LED\r\nPhares \u00e0 allumage automatique\r\nR\u00e9troviseurs ext\u00e9rieurs chauffants            "},{"id":11,"Brand":"renault","Model":"Talisman","Price":50000,"Registration":"2018","Kilometer":27292,"Img1":"","Img2":"upload\/","Img3":null,"Fuel":"essence","MaxSpeed":"5","CV":"200","Option":"                  "},{"id":12,"Brand":"renault","Model":"Talisman","Price":50000,"Registration":"2018","Kilometer":27292,"Img1":"","Img2":"upload\/","Img3":null,"Fuel":"essence","MaxSpeed":"5","CV":"200","Option":"                  "},{"id":13,"Brand":"renault","Model":"Talisman","Price":50000,"Registration":"2018","Kilometer":27292,"Img1":"","Img2":"upload\/","Img3":null,"Fuel":"essence","MaxSpeed":"5","CV":"200","Option":"                  "},{"id":14,"Brand":"renault","Model":"Talisman","Price":50000,"Registration":"2018","Kilometer":27292,"Img1":"","Img2":"upload\/","Img3":null,"Fuel":"essence","MaxSpeed":"5","CV":"200","Option":"                  "},{"id":15,"Brand":"renault","Model":"Talisman","Price":50000,"Registration":"2018","Kilometer":27292,"Img1":"","Img2":"upload\/","Img3":null,"Fuel":"essence","MaxSpeed":"5","CV":"200","Option":"                  "},{"id":17,"Brand":"renault","Model":"Talisman","Price":50000,"Registration":"2018","Kilometer":27292,"Img1":"","Img2":"upload\/","Img3":null,"Fuel":"essence","MaxSpeed":"5","CV":"200","Option":"                  "},{"id":18,"Brand":"renault","Model":"Talisman","Price":50000,"Registration":"2018","Kilometer":27292,"Img1":"","Img2":"upload\/","Img3":null,"Fuel":"essence","MaxSpeed":"5","CV":"200","Option":"                  "},{"id":20,"Brand":"renault","Model":"Talisman","Price":50000,"Registration":"2018","Kilometer":27292,"Img1":"","Img2":"upload\/","Img3":null,"Fuel":"essence","MaxSpeed":"5","CV":"200","Option":"                  "},{"id":26,"Brand":"renault","Model":"Talisman","Price":50000,"Registration":"2018","Kilometer":27292,"Img1":"","Img2":"upload\/","Img3":null,"Fuel":"essence","MaxSpeed":"5","CV":"200","Option":"                  "},{"id":29,"Brand":"renault","Model":"Talisman","Price":50000,"Registration":"2018","Kilometer":27292,"Img1":"","Img2":"upload\/","Img3":null,"Fuel":"essence","MaxSpeed":"5","CV":"200","Option":"                  "},{"id":30,"Brand":"renault","Model":"Talisman","Price":50000,"Registration":"2018","Kilometer":27292,"Img1":"","Img2":"upload\/","Img3":null,"Fuel":"essence","MaxSpeed":"5","CV":"200","Option":"                  "}]